start=new Date('2023-06-20T00:00:00.000Z').valueOf();
sats=[{"ECCENTRICITY":"0.00015060","CENTER_NAME":"EARTH","LAUNCH_DATE":"2021-05-04","TLE_LINE1":"1 48383U 21038AG  23170.31363525 -.00001095  00000-0 -54646-4 0  9997","SITE":"AFETR","APOAPSIS":"548.284","TLE_LINE2":"2 48383  53.0543 135.5429 0001506  94.1081 266.0080 15.06390934118510","NORAD_CAT_ID":"48383","RCS_SIZE":"LARGE","MEAN_ANOMALY":"266.0080","OBJECT_TYPE":"PAYLOAD","MEAN_MOTION":"15.06390934","SEMIMAJOR_AXIS":"6925.376","REF_FRAME":"TEME","PERIAPSIS":"546.198","MEAN_MOTION_DDOT":"0.0000000000000","DECAY_DATE":null,"ARG_OF_PERICENTER":"94.1081","RA_OF_ASC_NODE":"135.5429","CLASSIFICATION_TYPE":"U","PERIOD":"95.593","COUNTRY_CODE":"US","MEAN_ELEMENT_THEORY":"SGP4","TIME_SYSTEM":"UTC","OBJECT_NAME":"STARLINK-2599","GP_ID":"234285268","EPHEMERIS_TYPE":"0","BSTAR":"-0.00005464600000","OBJECT_ID":"2021-038AG","MEAN_MOTION_DOT":"-0.00001095","FILE":"3937338","EPOCH":"2023-06-19T07:31:38.085600","INCLINATION":"53.0543","ELEMENT_SET_NO":"999","REV_AT_EPOCH":"11851"},{"TLE_LINE2":"2 48384  53.0530 136.1564 0001295  88.2933 271.8204 15.06401661118498","APOAPSIS":"548.105","SITE":"AFETR","TLE_LINE1":"1 48384U 21038AH  23170.17726810  .00006149  00000-0  43134-3 0  9994","LAUNCH_DATE":"2021-05-04","CENTER_NAME":"EARTH","ECCENTRICITY":"0.00012950","SEMIMAJOR_AXIS":"6925.343","REF_FRAME":"TEME","MEAN_MOTION":"15.06401661","MEAN_ANOMALY":"271.8204","OBJECT_TYPE":"PAYLOAD","NORAD_CAT_ID":"48384","RCS_SIZE":"LARGE","MEAN_ELEMENT_THEORY":"SGP4","COUNTRY_CODE":"US","CLASSIFICATION_TYPE":"U","RA_OF_ASC_NODE":"136.1564","PERIOD":"95.592","DECAY_DATE":null,"ARG_OF_PERICENTER":"88.2933","PERIAPSIS":"546.312","MEAN_MOTION_DDOT":"0.0000000000000","INCLINATION":"53.0530","REV_AT_EPOCH":"11849","ELEMENT_SET_NO":"999","EPOCH":"2023-06-19T04:15:15.963840","FILE":"3937509","MEAN_MOTION_DOT":"0.00006149","OBJECT_ID":"2021-038AH","BSTAR":"0.00043134000000","EPHEMERIS_TYPE":"0","TIME_SYSTEM":"UTC","OBJECT_NAME":"STARLINK-2601","GP_ID":"234317947"},{"SEMIMAJOR_AXIS":"6925.363","REF_FRAME":"TEME","MEAN_MOTION":"15.06395286","MEAN_ANOMALY":"263.5817","OBJECT_TYPE":"PAYLOAD","RCS_SIZE":"LARGE","NORAD_CAT_ID":"48385","APOAPSIS":"548.167","TLE_LINE2":"2 48385  53.0547 134.0837 0001356  96.5327 263.5817 15.06395286118565","SITE":"AFETR","ECCENTRICITY":"0.00013560","CENTER_NAME":"EARTH","LAUNCH_DATE":"2021-05-04","TLE_LINE1":"1 48385U 21038AJ  23170.63799670 -.00000077  00000-0  13742-4 0  9998","FILE":"3937509","EPOCH":"2023-06-19T15:18:42.914880","REV_AT_EPOCH":"11856","ELEMENT_SET_NO":"999","INCLINATION":"53.0547","OBJECT_ID":"2021-038AJ","MEAN_MOTION_DOT":"-0.00000077","BSTAR":"0.00001374200000","GP_ID":"234316696","TIME_SYSTEM":"UTC","OBJECT_NAME":"STARLINK-2598","EPHEMERIS_TYPE":"0","MEAN_ELEMENT_THEORY":"SGP4","COUNTRY_CODE":"US","PERIOD":"95.592","RA_OF_ASC_NODE":"134.0837","CLASSIFICATION_TYPE":"U","MEAN_MOTION_DDOT":"0.0000000000000","PERIAPSIS":"546.289","ARG_OF_PERICENTER":"96.5327","DECAY_DATE":null},{"MEAN_ANOMALY":"263.8516","OBJECT_TYPE":"PAYLOAD","NORAD_CAT_ID":"48386","RCS_SIZE":"LARGE","SEMIMAJOR_AXIS":"6925.376","REF_FRAME":"TEME","MEAN_MOTION":"15.06390961","SITE":"AFETR","ECCENTRICITY":"0.00013510","CENTER_NAME":"EARTH","LAUNCH_DATE":"2021-05-04","TLE_LINE1":"1 48386U 21038AK  23170.62556202 -.00000398  00000-0 -78049-5 0  9999","APOAPSIS":"548.177","TLE_LINE2":"2 48386  53.0540 129.1502 0001351  96.2627 263.8516 15.06390961117404","BSTAR":"-0.00000780490000","GP_ID":"234316444","TIME_SYSTEM":"UTC","OBJECT_NAME":"STARLINK-2606","EPHEMERIS_TYPE":"0","EPOCH":"2023-06-19T15:00:48.558528","FILE":"3937509","REV_AT_EPOCH":"11740","ELEMENT_SET_NO":"999","INCLINATION":"53.0540","OBJECT_ID":"2021-038AK","MEAN_MOTION_DOT":"-0.00000398","MEAN_MOTION_DDOT":"0.0000000000000","PERIAPSIS":"546.306","ARG_OF_PERICENTER":"96.2627","DECAY_DATE":null,"COUNTRY_CODE":"US","MEAN_ELEMENT_THEORY":"SGP4","PERIOD":"95.593","CLASSIFICATION_TYPE":"U","RA_OF_ASC_NODE":"129.1502"},{"MEAN_MOTION":"15.06398993","REF_FRAME":"TEME","SEMIMAJOR_AXIS":"6925.352","NORAD_CAT_ID":"48387","RCS_SIZE":"LARGE","OBJECT_TYPE":"PAYLOAD","MEAN_ANOMALY":"270.3549","TLE_LINE2":"2 48387  53.0546 129.2789 0001311  89.7590 270.3549 15.06398993117997","APOAPSIS":"548.125","TLE_LINE1":"1 48387U 21038AL  23170.58869344  .00000253  00000-0  35864-4 0  9994","LAUNCH_DATE":"2021-05-04","CENTER_NAME":"EARTH","ECCENTRICITY":"0.00013110","SITE":"AFETR","MEAN_MOTION_DOT":"0.00000253","OBJECT_ID":"2021-038AL","REV_AT_EPOCH":"11799","ELEMENT_SET_NO":"999","INCLINATION":"53.0546","EPOCH":"2023-06-19T14:07:43.113216","FILE":"3937429","EPHEMERIS_TYPE":"0","GP_ID":"234294167","TIME_SYSTEM":"UTC","OBJECT_NAME":"STARLINK-2600","BSTAR":"0.00003586400000","PERIOD":"95.592","RA_OF_ASC_NODE":"129.2789","CLASSIFICATION_TYPE":"U","COUNTRY_CODE":"US","MEAN_ELEMENT_THEORY":"SGP4","ARG_OF_PERICENTER":"89.7590","DECAY_DATE":null,"MEAN_MOTION_DDOT":"0.0000000000000","PERIAPSIS":"546.309"},{"MEAN_MOTION":"15.06396092","SEMIMAJOR_AXIS":"6925.361","REF_FRAME":"TEME","RCS_SIZE":"LARGE","NORAD_CAT_ID":"48388","MEAN_ANOMALY":"259.3273","OBJECT_TYPE":"PAYLOAD","TLE_LINE2":"2 48388  53.0552 129.3282 0001334 100.7866 259.3273 15.06396092117998","APOAPSIS":"548.149","TLE_LINE1":"1 48388U 21038AM  23170.58501786  .00002943  00000-0  21638-3 0  9999","LAUNCH_DATE":"2021-05-04","ECCENTRICITY":"0.00013340","CENTER_NAME":"EARTH","SITE":"AFETR","MEAN_MOTION_DOT":"0.00002943","OBJECT_ID":"2021-038AM","INCLINATION":"53.0552","REV_AT_EPOCH":"11799","ELEMENT_SET_NO":"999","FILE":"3937444","EPOCH":"2023-06-19T14:02:25.543104","EPHEMERIS_TYPE":"0","OBJECT_NAME":"STARLINK-2594","TIME_SYSTEM":"UTC","GP_ID":"234294186","BSTAR":"0.00021638000000","RA_OF_ASC_NODE":"129.3282","CLASSIFICATION_TYPE":"U","PERIOD":"95.592","MEAN_ELEMENT_THEORY":"SGP4","COUNTRY_CODE":"US","DECAY_DATE":null,"ARG_OF_PERICENTER":"100.7866","PERIAPSIS":"546.302","MEAN_MOTION_DDOT":"0.0000000000000"},{"ARG_OF_PERICENTER":"102.4447","DECAY_DATE":null,"MEAN_MOTION_DDOT":"0.0000000000000","PERIAPSIS":"546.214","PERIOD":"95.592","RA_OF_ASC_NODE":"124.3785","CLASSIFICATION_TYPE":"U","COUNTRY_CODE":"US","MEAN_ELEMENT_THEORY":"SGP4","EPHEMERIS_TYPE":"0","GP_ID":"234293803","TIME_SYSTEM":"UTC","OBJECT_NAME":"STARLINK-1904","BSTAR":"0.00019759000000","MEAN_MOTION_DOT":"0.00002663","OBJECT_ID":"2021-038AN","REV_AT_EPOCH":"11805","ELEMENT_SET_NO":"999","INCLINATION":"53.0553","FILE":"3937444","EPOCH":"2023-06-19T13:43:09.145632","TLE_LINE1":"1 48389U 21038AN  23170.57163363  .00002663  00000-0  19759-3 0  9994","LAUNCH_DATE":"2021-05-04","ECCENTRICITY":"0.00014490","CENTER_NAME":"EARTH","SITE":"AFETR","TLE_LINE2":"2 48389  53.0553 124.3785 0001449 102.4447 257.6704 15.06398784118052","APOAPSIS":"548.221","NORAD_CAT_ID":"48389","RCS_SIZE":"LARGE","OBJECT_TYPE":"PAYLOAD","MEAN_ANOMALY":"257.6704","MEAN_MOTION":"15.06398784","SEMIMAJOR_AXIS":"6925.352","REF_FRAME":"TEME"},{"APOAPSIS":"548.027","TLE_LINE2":"2 48390  53.0544 124.3964 0001168  89.6054 270.5069 15.06398665118057","CENTER_NAME":"EARTH","ECCENTRICITY":"0.00011680","TLE_LINE1":"1 48390U 21038AP  23170.56888598  .00000611  00000-0  59927-4 0  9992","LAUNCH_DATE":"2021-05-04","SITE":"AFETR","MEAN_MOTION":"15.06398665","SEMIMAJOR_AXIS":"6925.353","REF_FRAME":"TEME","NORAD_CAT_ID":"48390","RCS_SIZE":"LARGE","MEAN_ANOMALY":"270.5069","OBJECT_TYPE":"PAYLOAD","PERIOD":"95.592","RA_OF_ASC_NODE":"124.3964","CLASSIFICATION_TYPE":"U","COUNTRY_CODE":"US","MEAN_ELEMENT_THEORY":"SGP4","MEAN_MOTION_DDOT":"0.0000000000000","PERIAPSIS":"546.409","ARG_OF_PERICENTER":"89.6054","DECAY_DATE":null,"OBJECT_ID":"2021-038AP","MEAN_MOTION_DOT":"0.00000611","EPOCH":"2023-06-19T13:39:11.748672","FILE":"3937430","REV_AT_EPOCH":"11805","ELEMENT_SET_NO":"999","INCLINATION":"53.0544","GP_ID":"234293814","OBJECT_NAME":"STARLINK-2586","TIME_SYSTEM":"UTC","EPHEMERIS_TYPE":"0","BSTAR":"0.00005992700000"},{"EPHEMERIS_TYPE":"0","GP_ID":"234285269","OBJECT_NAME":"STARLINK-2607","TIME_SYSTEM":"UTC","BSTAR":"0.00010343000000","MEAN_MOTION_DOT":"0.00001259","OBJECT_ID":"2021-038AQ","ELEMENT_SET_NO":"999","REV_AT_EPOCH":"11868","INCLINATION":"53.0542","EPOCH":"2023-06-19T13:33:53.026848","FILE":"3937338","ARG_OF_PERICENTER":"89.0104","DECAY_DATE":null,"MEAN_MOTION_DDOT":"0.0000000000000","PERIAPSIS":"546.305","PERIOD":"95.592","RA_OF_ASC_NODE":"124.4155","CLASSIFICATION_TYPE":"U","COUNTRY_CODE":"US","MEAN_ELEMENT_THEORY":"SGP4","RCS_SIZE":"LARGE","NORAD_CAT_ID":"48391","MEAN_ANOMALY":"271.1035","OBJECT_TYPE":"PAYLOAD","MEAN_MOTION":"15.06399441","REF_FRAME":"TEME","SEMIMAJOR_AXIS":"6925.350","TLE_LINE1":"1 48391U 21038AQ  23170.56519707  .00001259  00000-0  10343-3 0  9993","LAUNCH_DATE":"2021-05-04","CENTER_NAME":"EARTH","ECCENTRICITY":"0.00013140","SITE":"AFETR","TLE_LINE2":"2 48391  53.0542 124.4155 0001314  89.0104 271.1035 15.06399441118684","APOAPSIS":"548.125"},{"OBJECT_TYPE":"PAYLOAD","MEAN_ANOMALY":"271.2545","NORAD_CAT_ID":"48392","RCS_SIZE":"LARGE","REF_FRAME":"TEME","SEMIMAJOR_AXIS":"6925.334","MEAN_MOTION":"15.06404748","SITE":"AFETR","LAUNCH_DATE":"2021-05-04","TLE_LINE1":"1 48392U 21038AR  23170.56150834  .00002974  00000-0  21846-3 0  9991","ECCENTRICITY":"0.00010780","CENTER_NAME":"EARTH","TLE_LINE2":"2 48392  53.0534 124.4332 0001078  88.8567 271.2545 15.06404748118055","APOAPSIS":"547.946","BSTAR":"0.00021846000000","EPHEMERIS_TYPE":"0","GP_ID":"234293827","OBJECT_NAME":"STARLINK-2605","TIME_SYSTEM":"UTC","ELEMENT_SET_NO":"999","REV_AT_EPOCH":"11805","INCLINATION":"53.0534","FILE":"3937431","EPOCH":"2023-06-19T13:28:34.320576","MEAN_MOTION_DOT":"0.00002974","OBJECT_ID":"2021-038AR","ARG_OF_PERICENTER":"88.8567","DECAY_DATE":null,"MEAN_MOTION_DDOT":"0.0000000000000","PERIAPSIS":"546.452","COUNTRY_CODE":"US","MEAN_ELEMENT_THEORY":"SGP4","PERIOD":"95.592","RA_OF_ASC_NODE":"124.4332","CLASSIFICATION_TYPE":"U"}];
